{"RECORDS":[{"CCSDS_OMM_VERS":10422.6,"CREATION_DATE":"2059-08-19T22:25:29.856Z","ORIGINATOR":"Cormier, Yundt and Harvey","OBJECT_NAME":"/:Xa.l|Af@","OBJECT_ID":"w(B$:)h0Ta","CENTER_NAME":"|Ry1D<,}A^","REF_FRAME":6,"REF_FRAME_EPOCH":"2082-08-15T10:38:29.307Z","TIME_SYSTEM":7,"MEAN_ELEMENT_THEORY":2,"COMMENT":":F<>y>52#L","EPOCH":"2012-08-16T01:53:17.349Z","SEMI_MAJOR_AXIS":52727.96,"MEAN_MOTION":66393.43,"ECCENTRICITY":86842.96,"INCLINATION":33619.34,"RA_OF_ASC_NODE":21779.54,"ARG_OF_PERICENTER":22388.02,"MEAN_ANOMALY":64322.77,"GM":60458.59,"MASS":56834.2,"SOLAR_RAD_AREA":94604.59,"SOLAR_RAD_COEFF":71745.5,"DRAG_AREA":50076.08,"DRAG_COEFF":15684.04,"EPHEMERIS_TYPE":2,"CLASSIFICATION_TYPE":"(%flt=#r?|","NORAD_CAT_ID":2276490899,"ELEMENT_SET_NO":558787863,"REV_AT_EPOCH":49351.91,"BSTAR":39604.16,"MEAN_MOTION_DOT":86751.98,"MEAN_MOTION_DDOT":74288.98,"COV_REF_FRAME":0,"CX_X":96023.96,"CY_X":30460.48,"CY_Y":39376.03,"CZ_X":54339.81,"CZ_Y":79291.07,"CZ_Z":72116.07,"CX_DOT_X":76647,"CX_DOT_Y":47463.34,"CX_DOT_Z":93215.24,"CX_DOT_X_DOT":57422.26,"CY_DOT_X":59706.32,"CY_DOT_Y":84820.8,"CY_DOT_Z":15121.98,"CY_DOT_X_DOT":97700.5,"CY_DOT_Y_DOT":73445.36,"CZ_DOT_X":20716.23,"CZ_DOT_Y":90120.92,"CZ_DOT_Z":7951.71,"CZ_DOT_X_DOT":52784.63,"CZ_DOT_Y_DOT":92997.52,"CZ_DOT_Z_DOT":6582.46,"USER_DEFINED_BIP_0044_TYPE":2587171065,"USER_DEFINED_OBJECT_DESIGNATOR":"5HVrq>@&k/","USER_DEFINED_EARTH_MODEL":"2ih:tvFO3D","USER_DEFINED_EPOCH_TIMESTAMP":39745.48,"USER_DEFINED_MICROSECONDS":23812.92}]}